#cP2010  1 10  0  0  0.00000000      96 ORBIT IGS05 HLM  IGS
## 1566      0.00000000   900.00000000 55206 0.0000000000000
+   32   G01G02G03G04G05G06G07G08G09G10G11G12G13G14G15G16G17
+        G18G19G20G21G22G23G24G25G26G27G28G29G30G31G32  0  0
+          0  0  0  0  0  0  0  0  0  0  0  0  0  0  0  0  0
+          0  0  0  0  0  0  0  0  0  0  0  0  0  0  0  0  0
+          0  0  0  0  0  0  0  0  0  0  0  0  0  0  0  0  0
++         3  2  2  2  2  2  2  2  2  2  2  2  2  2  2  2  2
++         2  3  2  2  2  2  2  3  2  2  2  3  3  2  2  0  0
++         0  0  0  0  0  0  0  0  0  0  0  0  0  0  0  0  0
++         0  0  0  0  0  0  0  0  0  0  0  0  0  0  0  0  0
++         0  0  0  0  0  0  0  0  0  0  0  0  0  0  0  0  0
%c G  cc GPS ccc cccc cccc cccc cccc ccccc ccccc ccccc ccccc
%c cc cc ccc ccc cccc cccc cccc cccc ccccc ccccc ccccc ccccc
%f  1.2500000  1.025000000  0.00000000000  0.000000000000000
%f  0.0000000  0.000000000  0.00000000000  0.000000000000000
%i    0    0    0    0      0      0      0      0         0
%i    0    0    0    0      0      0      0      0         0
/* FINAL ORBIT COMBINATION FROM WEIGHTED AVERAGE OF:        
/* cod emr esa gfz grg jpl mit ngs sio                      
/* REFERENCED TO IGS TIME (IGST) AND TO WEIGHTED MEAN POLE: 
/* PCV:IGS05_1567 OL/AL:FES2004  NONE     Y  ORB:CMB CLK:CMB
*  2010  1 10 14 15  0.00000000
PG01 -19161.933276  15869.458090   9039.202440    -78.326187  9  8 11  61       
PG02 -13845.413425 -22555.867285  -4263.510651    213.903690  6  4  4  84       
PG03  19161.782662  11173.430463 -15206.416024    500.030050  3  7  3 136       
PG04  -4713.401241 -24722.425340   7711.261279   -450.594905  4  7  3 112       
PG05  -9899.470383 -12012.886366 -21528.983321    -18.158662  6  3  6  93       
PG06  15692.062794  13265.560248 -16709.933957    260.883700  3  6  4 135       
PG07  11140.615422 -11078.399206 -21399.878201      4.567070 10  8  5 151       
PG08   3192.751128 -21007.508401 -15609.219413      2.006036  5  5  7 125       
PG09 -17302.812701  -8991.866583  17394.426760     99.189206  5  5  5 131       
PG10  -5352.563656 -16499.057047 -20188.430049    -32.448225  7  5  6 134       
PG11  19813.393402   2884.335688  17357.139644    -38.988942  5  4  5 108       
PG12 -18735.382526   4133.260542  18366.169024   -164.900481  6  4  6 124       
PG13  20732.431688  -6587.994962 -15373.963102    306.673636  7  4  5 119       
PG14  -4073.623570  14210.125316  22199.143818     -1.593868  5  4  4  95       
PG15 -24348.646105  -7579.576445  -7588.583942   -314.148266  5  6  6  84       
PG16   3506.543214  17436.300016 -19593.835271    -29.026398  6  6  4 126       
PG17   2494.553204 -15072.380112  21803.379597    119.894478     5  6 136       
PG18 -17576.592697  19382.827872  -2927.701636     40.916845  8  8  7 137       
PG19  24664.592699   8557.308881  -5621.494714     -8.803694 10  8  6 147       
PG20  19654.396087  -8722.127165  15421.631062     63.636171  8  6  5 104       
PG21  -8834.841038  15524.807314 -19164.390687    -33.110652  5  5  6 139       
PG22 -10019.677965  23098.492056   8496.450832    181.917075  6  6  6 105       
PG23  26281.690312   -375.353053  -4852.263337    382.647481  8  7  8 152       
PG24 -15956.255590    582.163834 -21087.450753    252.615198  5  5  6 135       
PG25  14114.258909  -4950.705325 -21590.221513     76.137074  8  7  6 131       
PG26 -14624.981300  10298.190828  19252.160124     -8.565824  5  5  3 132       
PG27 -18235.283945 -10928.346535  16672.235298    115.955473  6  6  6 128       
PG28  11870.080178 -22725.502611   6734.840159    -23.787629  8  7  2 102       
PG29 -23313.550461   5007.574444 -11563.469720     88.950831  9  8  6 141       
PG30 -18968.093690  14874.926057  10701.735630    209.377489  8  9  6 160       
PG31   6451.960658  24968.140046   6212.624242    -55.858063  7  4  5 152       
PG32  17259.886655   1827.486519  20378.869356    119.863468  5  5  6 118       
*  2010  1 10 14 30  0.00000000
PG01 -18685.104361  14750.203386  11563.702566    -78.329269  9  8 11  99       
PG02 -13741.165864 -22966.328999  -1500.517570    213.907844  6  4  4  87       
PG03  17388.848582  11456.874147 -17027.187957    500.035603  3  7  4 132       
PG04  -3967.265351 -23900.629905  10278.767627   -450.612289  5  7  3 112       
PG05  -8494.700123 -13992.144516 -20917.097487    -18.154871  7  3  5 105       
PG06  13649.595174  13402.450585 -18291.661614    260.881804  3  6  4 142       
PG07  12248.650924  -8869.380603 -21833.485521      4.566695  9  8  5 149       
PG08   4035.528876 -19290.518291 -17559.581579      2.007134  5  5  6 124       
PG09 -18093.248840 -10826.902923  15517.620399     99.190457  5  5  5 133       
PG10  -3958.658220 -18228.311321 -18943.567044    -32.449374  7  5  6 134       
PG11  20837.467008   4565.849638  15780.459843    -38.990916  5  5  5 112       
PG12 -17596.662988   2278.195816  19778.513642   -164.896214  6  5  6 127       
PG13  22306.536614  -6250.236030 -13130.576682    306.673768  7  4  5 115       
PG14  -6534.819612  13893.498740  21794.916628     -1.589888  5  5  4  97       
PG15 -23318.740061  -7762.701242 -10176.799317   -314.146306  5  6  6  97       
PG16   2136.789785  19128.852179 -18139.852498    -29.029719  6  5  4 123       
PG17   4945.526671 -14811.379556  21543.287260    119.897535  2  5  6 137       
PG18 -17545.829141  18754.272385  -5703.054254     40.919172  8  8  7 131       
PG19  23844.050779   8667.135868  -8304.583600     -8.805890 10  8  6 147       
PG20  18810.508189  -7008.543229  17231.728003     63.635554  7  5  5 112       
PG21  -9958.683371  13472.077982 -20182.111358    -33.112806  5  5  6 137       
PG22 -10741.470786  23571.354709   5847.280966    181.916032  6  6  6 110       
PG23  26651.271230   -139.408684  -2033.292616    382.646840  8  7  8 149       
PG24 -16809.502710  -1662.529285 -20335.786948    252.618101  6  5  6 127       
PG25  15372.768602  -2771.191097 -21105.790578     76.144741  8  6  6 144       
PG26 -16790.255587   9923.623522  17702.913527     -8.568047  4  4  3 133       
PG27 -18934.800774 -12452.362992  14617.246529    115.958340  6  6  6 128       
PG28  12397.345044 -23037.252228   3930.917132    -23.787045  8  8  3  93       
PG29 -24476.630107   4656.284283  -9049.978283     88.953571  9  8  7 142       
PG30 -18427.771016  13542.358351  13073.254726    209.381189  8  9  6 150       
PG31   5897.843147  24300.243708   8929.121344    -55.856825  6  5  4 145       
PG32  15867.099964   3680.916679  21284.839135    119.856673  5  5  6 109       
*  2010  1 10 14 45  0.00000000
PG01 -18127.531349  13369.528224  13887.046584    -78.332092  9  8 11 175       
PG02 -13502.282141 -23113.106216   1287.596255    213.911431  6  5  3  95       
PG03  15446.327358  11843.751158 -18565.849723    500.040327  3  7  4 126       
PG04  -3046.050831 -22867.940568  12664.448511   -450.629298  5  7  2 124       
PG05  -7239.907890 -15965.346533 -19945.312079    -18.151168  7  4  4  98       
PG06  11452.975238  13642.255708 -19555.302947    260.879915  3  6  4 140       
PG07  13486.126258  -6699.853595 -21891.379945      4.566438  9  8  5 147       
PG08   5059.290098 -17440.584325 -19202.135625      2.006488  6  5  6 123       
PG09 -18860.764034 -12411.394615  13361.957955     99.192910  4  6  5 132       
PG10  -2736.974840 -19894.723519 -17373.677998    -32.449291  7  5  6 130       
PG11  21799.668381   6057.597144  13931.399294    -38.992457  5  5  5 110       
PG12 -16486.340497    245.906900  20850.942965   -164.891721  6  5  6 121       
PG13  23632.293478  -6023.086740 -10662.944628    306.673649  7  4  6 118       
PG14  -8944.998622  13720.131811  21019.859750     -1.585638  5  5  4  83       
PG15 -22016.743220  -7999.322141 -12590.654434   -314.144436  5  6  6 100       
PG16    955.929112  20737.576001 -16369.768995    -29.033762  6  5  4 116       
PG17   7358.798888 -14679.980190  20914.467902    119.900542  3  5  5 137       
PG18 -17379.444670  17860.903312  -8377.385641     40.921733  8  8  6 131       
PG19  22736.934801   8793.828726 -10846.880774     -8.807613  9  8  5 149       
PG20  17958.211015  -5091.444055  18741.761072     63.634655  5  5  4 119       
PG21 -11218.825505  11392.991495 -20839.303961    -33.115031  4  6  6 137       
PG22 -11276.716419  23821.822343   3097.432277    181.915274  6  6  6 106       
PG23  26714.125004     69.870667    820.015877    382.645948  7  6  8 142       
PG24 -17727.344046  -3768.912864 -19229.269508    252.621898  5  5  6 127       
PG25  16701.109012   -724.216046 -20245.533325     76.152543  8  6  7 140       
PG26 -18771.270662   9688.934117  15841.304905     -8.570443  4  4  3 141       
PG27 -19588.581480 -13735.960138  12321.935999    115.959924  6  6  6 120       
PG28  12736.880064 -23103.346105   1058.574094    -23.786777  8  8  3  81       
PG29 -25362.068627   4378.949285  -6379.805829     88.956142  9  9  7 137       
PG30 -17833.201024  11954.303698  15214.135303    209.385039  8  9  6 179       
PG31   5164.447648  23402.385658  11491.824868    -55.855336  5  6  5 144       
PG32  14528.934181   5667.985835  21834.375433    119.849628  5  4  6 126       
EOF
